STARLINK-35816          
1 66499U 25263Q   25342.58335648 -.00064658  00000+0 -11050-2 0  9999
2 66499  43.0000 149.4081 0001453 263.8967 217.7760 15.50589054  4965
STARLINK-35894          
1 66500U 25263R   25342.58335648 -.00050153  00000+0 -85437-3 0  9998
2 66500  43.0001 149.5228 0001083 284.5574 150.3366 15.50585550  4967
STARLINK-35897          
1 66501U 25263S   25342.58335648  .00004640  00000+0  84885-4 0  9994
2 66501  43.0001 149.4032 0001732 286.2129 197.3562 15.50571958  4962
STARLINK-35922          
1 66502U 25263T   25342.58335648 -.00055538  00000+0 -94742-3 0  9991
2 66502  43.0001 149.3882 0001556 265.7672 223.5759 15.50583301  4969
STARLINK-35917          
1 66503U 25263U   25342.58335648  .00020770  00000+0  35913-3 0  9995
2 66503  43.0000 149.3782 0001690 286.6995 206.4484 15.50561937  4963
STARLINK-35916          
1 66504U 25263V   25342.58335648  .00021454  00000+0  51992-3 0  9991
2 66504  43.0003 150.5819 0001414 264.9694  98.3528 15.40670147  4961
STARLINK-34766          
1 66505U 25263W   25342.58335648 -.00105523  00000+0 -18139-2 0  9999
2 66505  43.0001 149.3972 0001740 286.6918 198.7809 15.50628376  4963
STARLINK-34765          
1 66506U 25263X   25342.58335648 -.00103830  00000+0 -17844-2 0  9991
2 66506  42.9999 149.3930 0001622 287.0013 200.3846 15.50628732  4969
STARLINK-34767          
1 66507U 25263Y   25342.58335648 -.00074546  00000+0 -12762-2 0  9997
2 66507  43.0001 149.3828 0001324 266.5088 224.7471 15.50595590  4964
STARLINK-35608          
1 66508U 25263Z   25342.58335648  .00022406  00000+0  38687-3 0  9999
2 66508  43.0000 149.3688 0001688 287.4202 209.5573 15.50562586  4964
STARLINK-35598          
1 66509U 25263AA  25342.58335648 -.00056284  00000+0 -96032-3 0  9991
2 66509  43.0000 149.3486 0001445 264.5919 240.0895 15.50583105  4960
STARLINK-35600          
1 66510U 25263AB  25342.58335648 -.00072674  00000+0 -12438-2 0  9991
2 66510  42.9999 149.3627 0001317 267.6072 231.3190 15.50595216  4963
